CCSDS_OMM_VERS = 2.0
CREATION_DATE  = 
ORIGINATOR     = 

OBJECT_NAME    = COSMOS 1933
OBJECT_ID      = 1988-020A
CENTER_NAME    = EARTH
REF_FRAME      = TEME
TIME_SYSTEM    = UTC
MEAN_ELEMENT_THEORY = SGP/SGP4

EPOCH          = 2026-01-27T02:58:55.381440
MEAN_MOTION    = 15.17605002
ECCENTRICITY   = .00044237
INCLINATION    = 82.5145
RA_OF_ASC_NODE = 292.0283
ARG_OF_PERICENTER = 8.7172
MEAN_ANOMALY   = 351.4138

EPHEMERIS_TYPE = 0
CLASSIFICATION_TYPE = U
NORAD_CAT_ID   = 18958
ELEMENT_SET_NO = 999
REV_AT_EPOCH   = 4392
BSTAR          = .32199472E-3
MEAN_MOTION_DOT = .6502E-4
MEAN_MOTION_DDOT = 0

CCSDS_OMM_VERS = 2.0
CREATION_DATE  = 
ORIGINATOR     = 

OBJECT_NAME    = SL-3 R/B
OBJECT_ID      = 1988-032B
CENTER_NAME    = EARTH
REF_FRAME      = TEME
TIME_SYSTEM    = UTC
MEAN_ELEMENT_THEORY = SGP/SGP4

EPOCH          = 2026-01-27T13:52:27.387264
MEAN_MOTION    = 15.19340809
ECCENTRICITY   = .0027026
INCLINATION    = 97.5130
RA_OF_ASC_NODE = 11.0125
ARG_OF_PERICENTER = 21.4419
MEAN_ANOMALY   = 338.7941

EPHEMERIS_TYPE = 0
CLASSIFICATION_TYPE = U
NORAD_CAT_ID   = 19046
ELEMENT_SET_NO = 999
REV_AT_EPOCH   = 4586
BSTAR          = .42162786E-3
MEAN_MOTION_DOT = .8929E-4
MEAN_MOTION_DDOT = 0

CCSDS_OMM_VERS = 2.0
CREATION_DATE  = 
ORIGINATOR     = 

OBJECT_NAME    = SL-16 R/B
OBJECT_ID      = 1988-039B
CENTER_NAME    = EARTH
REF_FRAME      = TEME
TIME_SYSTEM    = UTC
MEAN_ELEMENT_THEORY = SGP/SGP4

EPOCH          = 2026-01-27T11:27:54.926784
MEAN_MOTION    = 14.19609123
ECCENTRICITY   = .00203218
INCLINATION    = 71.0149
RA_OF_ASC_NODE = 155.6905
ARG_OF_PERICENTER = 38.4978
MEAN_ANOMALY   = 321.7592

EPHEMERIS_TYPE = 0
CLASSIFICATION_TYPE = U
NORAD_CAT_ID   = 19120
ELEMENT_SET_NO = 999
REV_AT_EPOCH   = 95253
BSTAR          = .50634047E-4
MEAN_MOTION_DOT = .59E-6
MEAN_MOTION_DDOT = 0

CCSDS_OMM_VERS = 2.0
CREATION_DATE  = 
ORIGINATOR     = 

OBJECT_NAME    = COSMOS 1953
OBJECT_ID      = 1988-050A
CENTER_NAME    = EARTH
REF_FRAME      = TEME
TIME_SYSTEM    = UTC
MEAN_ELEMENT_THEORY = SGP/SGP4

EPOCH          = 2026-01-27T12:03:23.808096
MEAN_MOTION    = 15.27643551
ECCENTRICITY   = .00103198
INCLINATION    = 82.5074
RA_OF_ASC_NODE = 199.6379
ARG_OF_PERICENTER = 270.0149
MEAN_ANOMALY   = 89.9907

EPHEMERIS_TYPE = 0
CLASSIFICATION_TYPE = U
NORAD_CAT_ID   = 19210
ELEMENT_SET_NO = 999
REV_AT_EPOCH   = 3149
BSTAR          = .44747336E-3
MEAN_MOTION_DOT = .12143E-3
MEAN_MOTION_DDOT = 0

CCSDS_OMM_VERS = 2.0
CREATION_DATE  = 
ORIGINATOR     = 

OBJECT_NAME    = SL-8 R/B
OBJECT_ID      = 1988-053B
CENTER_NAME    = EARTH
REF_FRAME      = TEME
TIME_SYSTEM    = UTC
MEAN_ELEMENT_THEORY = SGP/SGP4

EPOCH          = 2026-01-27T11:54:48.234240
MEAN_MOTION    = 14.38889689
ECCENTRICITY   = .00198492
INCLINATION    = 74.0464
RA_OF_ASC_NODE = 188.3873
ARG_OF_PERICENTER = 16.2606
MEAN_ANOMALY   = 39.4718

EPHEMERIS_TYPE = 0
CLASSIFICATION_TYPE = U
NORAD_CAT_ID   = 19257
ELEMENT_SET_NO = 999
REV_AT_EPOCH   = 97067
BSTAR          = .14405079E-3
MEAN_MOTION_DOT = .418E-5
MEAN_MOTION_DDOT = 0

CCSDS_OMM_VERS = 2.0
CREATION_DATE  = 
ORIGINATOR     = 

OBJECT_NAME    = COSMOS 1975
OBJECT_ID      = 1988-093A
CENTER_NAME    = EARTH
REF_FRAME      = TEME
TIME_SYSTEM    = UTC
MEAN_ELEMENT_THEORY = SGP/SGP4

EPOCH          = 2026-01-27T09:27:49.284288
MEAN_MOTION    = 15.27281606
ECCENTRICITY   = .00107437
INCLINATION    = 82.5212
RA_OF_ASC_NODE = 159.0997
ARG_OF_PERICENTER = 320.5163
MEAN_ANOMALY   = 39.5291

EPHEMERIS_TYPE = 0
CLASSIFICATION_TYPE = U
NORAD_CAT_ID   = 19573
ELEMENT_SET_NO = 999
REV_AT_EPOCH   = 1310
BSTAR          = .47537031E-3
MEAN_MOTION_DOT = .1276E-3
MEAN_MOTION_DDOT = 0

CCSDS_OMM_VERS = 2.0
CREATION_DATE  = 
ORIGINATOR     = 

OBJECT_NAME    = SL-14 R/B
OBJECT_ID      = 1988-093B
CENTER_NAME    = EARTH
REF_FRAME      = TEME
TIME_SYSTEM    = UTC
MEAN_ELEMENT_THEORY = SGP/SGP4

EPOCH          = 2026-01-27T14:17:16.982016
MEAN_MOTION    = 14.85610348
ECCENTRICITY   = .0020969
INCLINATION    = 82.5292
RA_OF_ASC_NODE = 80.6316
ARG_OF_PERICENTER = 169.9428
MEAN_ANOMALY   = 349.8962

EPHEMERIS_TYPE = 0
CLASSIFICATION_TYPE = U
NORAD_CAT_ID   = 19574
ELEMENT_SET_NO = 999
REV_AT_EPOCH   = 99493
BSTAR          = .81851368E-4
MEAN_MOTION_DOT = .735E-5
MEAN_MOTION_DDOT = 0

CCSDS_OMM_VERS = 2.0
CREATION_DATE  = 
ORIGINATOR     = 

OBJECT_NAME    = SL-16 R/B
OBJECT_ID      = 1988-102B
CENTER_NAME    = EARTH
REF_FRAME      = TEME
TIME_SYSTEM    = UTC
MEAN_ELEMENT_THEORY = SGP/SGP4

EPOCH          = 2026-01-27T14:00:06.452064
MEAN_MOTION    = 14.16147760
ECCENTRICITY   = .0011966
INCLINATION    = 70.9971
RA_OF_ASC_NODE = 237.9857
ARG_OF_PERICENTER = 70.1100
MEAN_ANOMALY   = 290.1312

EPHEMERIS_TYPE = 0
CLASSIFICATION_TYPE = U
NORAD_CAT_ID   = 19650
ELEMENT_SET_NO = 999
REV_AT_EPOCH   = 92107
BSTAR          = -.64376626E-4
MEAN_MOTION_DOT = -.175E-5
MEAN_MOTION_DDOT = 0

CCSDS_OMM_VERS = 2.0
CREATION_DATE  = 
ORIGINATOR     = 

OBJECT_NAME    = INTERCOSMOS 24
OBJECT_ID      = 1989-080A
CENTER_NAME    = EARTH
REF_FRAME      = TEME
TIME_SYSTEM    = UTC
MEAN_ELEMENT_THEORY = SGP/SGP4

EPOCH          = 2026-01-27T08:11:23.393472
MEAN_MOTION    = 12.59503269
ECCENTRICITY   = .11886955
INCLINATION    = 82.6078
RA_OF_ASC_NODE = 131.3101
ARG_OF_PERICENTER = 28.7995
MEAN_ANOMALY   = 337.3723

EPHEMERIS_TYPE = 0
CLASSIFICATION_TYPE = U
NORAD_CAT_ID   = 20261
ELEMENT_SET_NO = 999
REV_AT_EPOCH   = 66159
BSTAR          = .19448426E-3
MEAN_MOTION_DOT = .681E-5
MEAN_MOTION_DDOT = 0

CCSDS_OMM_VERS = 2.0
CREATION_DATE  = 
ORIGINATOR     = 

OBJECT_NAME    = SL-14 R/B
OBJECT_ID      = 1989-080C
CENTER_NAME    = EARTH
REF_FRAME      = TEME
TIME_SYSTEM    = UTC
MEAN_ELEMENT_THEORY = SGP/SGP4

EPOCH          = 2026-01-27T14:06:08.710848
MEAN_MOTION    = 12.50447890
ECCENTRICITY   = .12294603
INCLINATION    = 82.5926
RA_OF_ASC_NODE = 199.5760
ARG_OF_PERICENTER = 278.7626
MEAN_ANOMALY   = 67.6462

EPHEMERIS_TYPE = 0
CLASSIFICATION_TYPE = U
NORAD_CAT_ID   = 20262
ELEMENT_SET_NO = 999
REV_AT_EPOCH   = 65501
BSTAR          = .13630031E-3
MEAN_MOTION_DOT = .448E-5
MEAN_MOTION_DDOT = 0

CCSDS_OMM_VERS = 2.0
CREATION_DATE  = 
ORIGINATOR     = 

OBJECT_NAME    = DELTA 1 R/B
OBJECT_ID      = 1989-089B
CENTER_NAME    = EARTH
REF_FRAME      = TEME
TIME_SYSTEM    = UTC
MEAN_ELEMENT_THEORY = SGP/SGP4

EPOCH          = 2026-01-27T13:54:27.830592
MEAN_MOTION    = 14.50624682
ECCENTRICITY   = .00676154
INCLINATION    = 97.0732
RA_OF_ASC_NODE = 241.5484
ARG_OF_PERICENTER = 252.3226
MEAN_ANOMALY   = 107.0582

EPHEMERIS_TYPE = 0
CLASSIFICATION_TYPE = U
NORAD_CAT_ID   = 20323
ELEMENT_SET_NO = 999
REV_AT_EPOCH   = 88977
BSTAR          = .18874822E-3
MEAN_MOTION_DOT = .726E-5
MEAN_MOTION_DDOT = 0

CCSDS_OMM_VERS = 2.0
CREATION_DATE  = 
ORIGINATOR     = 

OBJECT_NAME    = ARIANE 40 R/B
OBJECT_ID      = 1990-005H
CENTER_NAME    = EARTH
REF_FRAME      = TEME
TIME_SYSTEM    = UTC
MEAN_ELEMENT_THEORY = SGP/SGP4

EPOCH          = 2026-01-27T14:31:06.352032
MEAN_MOTION    = 14.39840950
ECCENTRICITY   = .0009426
INCLINATION    = 98.3171
RA_OF_ASC_NODE = 89.4722
ARG_OF_PERICENTER = 334.5142
MEAN_ANOMALY   = 25.5581

EPHEMERIS_TYPE = 0
CLASSIFICATION_TYPE = U
NORAD_CAT_ID   = 20443
ELEMENT_SET_NO = 999
REV_AT_EPOCH   = 88689
BSTAR          = .17566151E-3
MEAN_MOTION_DOT = .509E-5
MEAN_MOTION_DDOT = 0

